Zipcode,City,Lat,Long
55909,ADAMS,43.56,-92.71
55909,JOHNSBURG,43.56,-92.71
56110,ADRIAN,43.63,-95.93
56146,KANARANZI,43.54,-96.11
56146,ADRIAN,43.54,-96.11
55001,AFTON,44.9,-92.81
56431,AITKIN,46.53,-93.71
56433,AKELEY,47.0,-94.72
56307,ALBANY,45.63,-94.56
56207,ALBERTA,45.57,-96.05
56007,ALBERT LEA,43.65,-93.36
56007,MANCHESTER,43.65,-93.36
56007,OAKLAND,43.65,-93.36
55301,ALBERTVILLE,45.23,-93.66
55301,OTSEGO,45.23,-93.66
56009,ALDEN,43.67,-93.57
56434,ALDRICH,46.37,-94.93
56308,ALEXANDRIA,45.87,-95.37
56308,ALEX,45.87,-95.37
56111,ALPHA,43.63,-94.87
55910,ALTURA,44.06,-91.93
55910,MINNEISKA,44.06,-91.93
55910,BETHANY,44.06,-91.93
55910,ELBA,44.06,-91.93
55910,NORTON,44.06,-91.93
55910,WEAVER,44.06,-91.93
56010,AMBOY,43.88,-94.15
55703,ANGORA,47.77,-92.63
55703,ALANGO,47.77,-92.63
55710,BRITT,47.64,-92.68
55710,SANDY,47.64,-92.68
55302,ANNANDALE,45.26,-94.11
55303,ANOKA,45.21,-93.39
55303,ANDOVER,45.21,-93.39
55303,NOWTHEN,45.21,-93.39
55303,OAK GROVE,45.21,-93.39
55303,RAMSEY,45.21,-93.39
55304,ANDOVER,45.25,-93.33
55304,ANOKA,45.25,-93.33
55304,HAM LAKE,45.25,-93.33
55304,COUNTY MARKET,45.25,-93.33
55304,SODERVILLE,45.25,-93.33
56208,APPLETON,45.2,-96.02
56113,ARCO,44.38,-96.18
55307,ARLINGTON,44.6,-94.07
56309,ASHBY,46.09,-95.81
55704,ASKOV,46.18,-92.78
55704,ASLO,46.18,-92.78
55704,PARTRIDGE,46.18,-92.78
56209,ATWATER,45.13,-94.77
55705,AURORA,47.53,-92.24
55705,BIWABIK,47.53,-92.24
55705,PALO,47.53,-92.24
55705,PINEVILLE,47.53,-92.24
55705,WHITE,47.53,-92.24
55912,AUSTIN,43.67,-92.97
55912,MAPLEVIEW,43.67,-92.97
55912,NICOLVILLE,43.67,-92.97
55912,ANDYVILLE,43.67,-92.97
56114,AVOCA,43.94,-95.64
56310,AVON,45.6,-94.45
55706,BABBITT,47.64,-91.94
56435,BACKUS,46.82,-94.51
56621,BAGLEY,47.52,-95.4
56621,COPLEY,47.52,-95.4
56621,EBRO,47.52,-95.4
56621,FALK,47.52,-95.4
56621,NORA,47.52,-95.4
56621,POPPLE,47.52,-95.4
56621,ZERKEL,47.52,-95.4
56115,BALATON,44.23,-95.87
55707,BARNUM,46.5,-92.68
55707,MAHTOWA,46.5,-92.68
55707,SKELTON,46.5,-92.68
56311,BARRETT,45.91,-95.89
56623,BAUDETTE,48.71,-94.58
56623,PITT,48.71,-94.58
56623,BORDER,48.71,-94.58
56623,CARP,48.71,-94.58
56623,CLEMENTSON,48.71,-94.58
56623,HACKETT,48.71,-94.58
56623,SPOONER,48.71,-94.58
55003,BAYPORT,45.01,-92.78
55003,BAYTOWN,45.01,-92.78
55003,DOUGLAS,45.01,-92.78
56211,BEARDSLEY,45.55,-96.71
55601,BEAVER BAY,47.25,-91.29
56116,BEAVER CREEK,43.61,-96.36
55308,BECKER,45.37,-93.87
56312,BELGRADE,45.45,-94.99
56312,REGAL,45.45,-94.99
56312,SPRING HILL,45.45,-94.99
56011,BELLE PLAINE,44.62,-93.76
56212,BELLINGHAM,45.13,-96.28
56214,BELVIEW,44.6,-95.32
56601,BEMIDJI,47.48,-94.87
56601,TURTLE RIVER,47.48,-94.87
56601,WILTON,47.48,-94.87
56601,GRANT VALLEY,47.48,-94.87
56601,JONES,47.48,-94.87
56601,NORTHERN,47.48,-94.87
56601,NYMORE,47.48,-94.87
56601,PORT HOPE,47.48,-94.87
56601,SUGAR BUSH,47.48,-94.87
56601,TEN LAKE,47.48,-94.87
56619,BEMIDJI,47.48,-94.87
56658,MARGIE,48.09,-93.94
56626,BENA,47.34,-94.2
56641,FEDERAL DAM,47.23,-94.21
56215,BENSON,45.31,-95.6
56437,BERTHA,46.26,-95.06
55005,BETHEL,45.4,-93.26
55005,EAST BETHEL,45.4,-93.26
55005,LINWOOD,45.4,-93.26
55005,OAK GROVE,45.4,-93.26
56117,BIGELOW,43.5,-95.68
56627,BIG FALLS,48.18,-93.8
56627,GRAND FALLS,48.18,-93.8
56627,NETT RIVER,48.18,-93.8
56628,BIGFORK,47.74,-93.65
56628,STOKES,47.74,-93.65
56639,EFFIE,47.84,-93.63
56639,BIGFORK,47.84,-93.63
56639,CRAIGVILLE,47.84,-93.63
55309,BIG LAKE,45.33,-93.74
56629,BIRCHDALE,48.62,-94.1
56629,INDUS,48.62,-94.1
56629,MANITOU,48.62,-94.1
55310,BIRD ISLAND,44.76,-94.89
55708,BIWABIK,47.53,-92.35
56630,BLACKDUCK,47.72,-94.54
56630,ALVWOOD,47.72,-94.54
56630,BATTLE RIVER,47.72,-94.54
56630,BIRCH,47.72,-94.54
56630,CORMANT,47.72,-94.54
56630,FUNKLEY,47.72,-94.54
56630,HORNET,47.72,-94.54
56630,LANGOR,47.72,-94.54
56630,MOOSE PARK,47.72,-94.54
56630,PONEMAH,47.72,-94.54
56630,QUIRING,47.72,-94.54
56630,SUMMIT,47.72,-94.54
56663,PENNINGTON,47.48,-94.47
56663,BLACKDUCK,47.48,-94.47
56216,BLOMKEST,44.94,-95.02
56216,SVEA,44.94,-95.02
55917,BLOOMING PRAIRIE,43.86,-93.05
55917,BLMNG PRAIRIE,43.86,-93.05
55917,BIXBY,43.86,-93.05
55917,NEWRY,43.86,-93.05
55917,SUMMIT,43.86,-93.05
56013,BLUE EARTH,43.63,-94.09
56313,BOCK,45.78,-93.55
55709,BOVEY,47.29,-93.4
55709,BORAY,47.29,-93.4
56314,BOWLUS,45.82,-94.4
56314,ELMDALE,45.82,-94.4
56218,BOYD,44.85,-95.9
55006,BRAHAM,45.72,-93.17
55006,DAY,45.72,-93.17
55006,GRASS LAKE,45.72,-93.17
56401,BRAINERD,46.35,-94.19
56401,E GULL LAKE,46.35,-94.19
56401,EAST GULL LAKE,46.35,-94.19
56401,BAXTER,46.35,-94.19
56425,BAXTER,46.34,-94.28
56425,BRAINERD,46.34,-94.28
56315,BRANDON,45.96,-95.59
56315,MILLERVILLE,45.96,-95.59
56119,BREWSTER,43.69,-95.46
56014,BRICELYN,43.56,-93.81
55602,BRIMSON,47.27,-91.86
55602,AULT,47.27,-91.86
55602,BASSETT,47.27,-91.86
55602,FAIRBANKS,47.27,-91.86
55602,TOIMI,47.27,-91.86
55007,BROOK PARK,45.94,-93.07
55007,QUAMBA,45.94,-93.07
55711,BROOKSTON,46.86,-92.6
55711,ARROWHEAD,46.86,-92.6
55711,BRKSTON,46.86,-92.6
55711,FINE LAKES,46.86,-92.6
55711,STONEY BROOK,46.86,-92.6
56316,BROOTEN,45.5,-95.11
56438,BROWERVILLE,46.08,-94.86
55918,BROWNSDALE,43.74,-92.86
55918,RED ROCK,43.74,-92.86
56219,BROWNS VALLEY,45.59,-96.83
55919,BROWNSVILLE,43.69,-91.28
55919,RENO,43.69,-91.28
55312,BROWNTON,44.73,-94.35
55712,BRUNO,46.28,-92.66
55313,BUFFALO,45.17,-93.86
55314,BUFFALO LAKE,44.73,-94.61
55713,BUHL,47.49,-92.76
55713,GREAT SCOTT,47.49,-92.76
56318,BURTRUM,45.86,-94.68
56120,BUTTERFIELD,43.95,-94.79
55920,BYRON,44.03,-92.64
55921,CALEDONIA,43.63,-91.5
55921,FREEBURG,43.63,-91.5
55716,CALUMET,47.31,-93.26
55008,CAMBRIDGE,45.56,-93.22
55008,EDGEWOOD,45.56,-93.22
55008,SPECTACLE LAKE,45.56,-93.22
56220,CANBY,44.71,-96.26
55009,CANNON FALLS,44.51,-92.9
55009,MIESVILLE,44.51,-92.9
55009,WASTEDO,44.51,-92.9
55009,WHITE ROCK,44.51,-92.9
55922,CANTON,43.53,-91.92
56319,CARLOS,45.97,-95.29
55718,CARLTON,46.66,-92.42
55315,CARVER,44.76,-93.62
56633,CASS LAKE,47.37,-94.6
56633,FARDEN,47.37,-94.6
56633,FARRIS,47.37,-94.6
56633,PIKE BAY,47.37,-94.6
56633,SCHLEY,47.37,-94.6
56633,WILKINSON,47.37,-94.6
55010,CASTLE ROCK,44.58,-93.09
55011,CEDAR,45.34,-93.24
55011,CEDAR E BETHL,45.34,-93.24
55011,CEDAR EAST BETHEL,45.34,-93.24
55011,EAST BETHEL,45.34,-93.24
55011,OAK GROVE,45.34,-93.24
55002,ALMELUND,45.52,-92.87
55002,CENTER CITY,45.52,-92.87
55012,CENTER CITY,45.39,-92.81
55012,CHISAGO LAKE,45.39,-92.81
56121,CEYLON,43.53,-94.63
55316,CHAMPLIN,45.16,-93.38
56122,CHANDLER,43.92,-95.94
55317,CHANHASSEN,44.85,-93.55
55318,CHASKA,44.82,-93.6
55923,CHATFIELD,43.84,-92.18
55923,CUMMINGSVILLE,43.84,-92.18
55923,PILOT MOUND,43.84,-92.18
55013,CHISAGO CITY,45.37,-92.88
55719,CHISHOLM,47.48,-92.87
55719,BALKAN,47.48,-92.87
56221,CHOKIO,45.57,-96.17
55014,CIRCLE PINES,45.13,-93.15
55014,LINO LAKES,45.13,-93.15
55014,BLAINE,45.13,-93.15
55014,COLUMBUS,45.13,-93.15
55014,LEXINGTON,45.13,-93.15
56222,CLARA CITY,44.95,-95.36
55924,CLAREMONT,44.04,-92.99
56440,CLARISSA,46.12,-94.94
56223,CLARKFIELD,44.79,-95.8
56016,CLARKS GROVE,43.76,-93.32
56634,CLEARBROOK,47.69,-95.42
56634,EDDY,47.69,-95.42
56634,GREENWOOD,47.69,-95.42
56634,LEON,47.69,-95.42
56634,MINNEWASKA,47.69,-95.42
56652,LEONARD,47.65,-95.26
56652,CLOVER,47.65,-95.26
56652,DUDLEY,47.65,-95.26
56652,HOLST,47.65,-95.26
56652,SINCLAIR,47.65,-95.26
55319,CLEAR LAKE,45.44,-93.99
55320,CLEARWATER,45.41,-94.04
55320,SAINT AUGUSTA,45.41,-94.04
56224,CLEMENTS,44.37,-95.05
56017,CLEVELAND,44.32,-93.83
56225,CLINTON,45.46,-96.44
56226,CLONTARF,45.37,-95.67
55720,CLOQUET,46.72,-92.49
55720,KNIFE FALLS,46.72,-92.49
55720,SCANLON,46.72,-92.49
55721,COHASSET,47.26,-93.62
55721,BASS BROOK,47.26,-93.62
55321,COKATO,45.07,-94.18
56320,COLD SPRING,45.45,-94.43
55722,COLERAINE,47.3,-93.42
56321,COLLEGEVILLE,45.64,-94.31
55322,COLOGNE,44.77,-93.78
56019,COMFREY,44.11,-94.9
56020,CONGER,43.61,-93.52
55723,COOK,47.85,-92.68
55723,TOGO,47.85,-92.68
55723,BEAR LAKE,47.85,-92.68
55723,BEARVILLE NORTH,47.85,-92.68
56227,CORRELL,45.23,-96.16
56228,COSMOS,44.93,-94.69
55016,COTTAGE GROVE,44.81,-92.92
55717,CANYON,47.06,-92.4
55717,LAKE NICHOLS,47.06,-92.4
55717,NORTHLAND,47.06,-92.4
55717,SHAW,47.06,-92.4
55724,COTTON,47.16,-92.47
55724,KELSEY,47.16,-92.47
55724,MELRUDE,47.16,-92.47
55766,MELRUDE,47.24,-92.42
55766,ELLSBURG,47.24,-92.42
55766,WHITEFACE,47.24,-92.42
56229,COTTONWOOD,44.6,-95.67
56021,COURTLAND,44.26,-94.34
55725,CRANE LAKE,48.26,-92.48
55726,CROMWELL,46.67,-92.87
56441,CROSBY,46.49,-93.95
56441,TROMMALD,46.49,-93.95
56442,CROSSLAKE,46.68,-94.09
56442,MANHATTAN BCH,46.68,-94.09
56442,MANHATTAN BEACH,46.68,-94.09
56442,CROSS LAKE,46.68,-94.09
55323,CRYSTAL BAY,44.97,-93.59
55323,ORONO,44.97,-93.59
56123,CURRIE,44.07,-95.66
56443,CUSHING,46.19,-94.57
56323,CYRUS,45.61,-95.73
55925,DAKOTA,43.91,-91.35
55925,NEW HARTFORD,43.91,-91.35
55925,NODINE,43.91,-91.35
55017,DALBO,45.68,-93.45
56324,DALTON,46.17,-95.91
56230,DANUBE,44.79,-95.1
56231,DANVERS,45.28,-95.75
56022,DARFUR,44.05,-94.83
55324,DARWIN,45.09,-94.4
55325,DASSEL,45.08,-94.3
55325,KINGSTON,45.08,-94.3
56232,DAWSON,44.92,-96.04
55327,DAYTON,45.18,-93.47
55327,HASSAN,45.18,-93.47
55327,OTSEGO,45.18,-93.47
56631,BOWSTRING,47.54,-93.79
56636,DEER RIVER,47.33,-93.79
56636,DEER RIV,47.33,-93.79
56636,INGER,47.33,-93.79
56636,MORSE,47.33,-93.79
56636,OTENEAGEN,47.33,-93.79
56636,ZEMPLE,47.33,-93.79
56637,TALMOON,47.6,-93.77
56659,MAX,47.61,-94.06
56688,WIRT,47.73,-93.96
56444,DEERWOOD,46.47,-93.89
56444,CUYUNA,46.47,-93.89
55328,DELANO,45.04,-93.78
55328,INDEPENDENCE,45.04,-93.78
56023,DELAVAN,43.76,-94.01
55018,DENNISON,44.4,-93.02
55018,STANTON,44.4,-93.02
55926,DEXTER,43.71,-92.7
55933,ELKTON,43.65,-92.7
55927,DODGE CENTER,44.02,-92.84
55927,WASIOJA,44.02,-92.84
56235,DONNELLY,45.69,-96.01
55929,DOVER,43.96,-92.13
56125,DOVRAY,44.05,-95.54
55701,ADOLPH,46.84,-92.22
55701,DULUTH,46.84,-92.22
55801,DULUTH,46.78,-92.11
55802,DULUTH,46.78,-92.11
55803,DULUTH,46.78,-92.11
55804,DULUTH,46.78,-92.11
55805,DULUTH,46.78,-92.11
55806,DULUTH,46.78,-92.11
55807,DULUTH,46.78,-92.11
55807,WEST DULUTH,46.78,-92.11
55808,DULUTH,46.78,-92.11
55808,MORGAN PARK,46.78,-92.11
55810,DULUTH,46.78,-92.11
55810,HERMANTOWN,46.78,-92.11
55810,PROCTOR,46.78,-92.11
55811,DULUTH,46.78,-92.11
55811,HERMANTOWN,46.78,-92.11
55812,DULUTH,46.78,-92.11
55814,DULUTH,46.78,-92.11
55814,DLTH FED PRIS,46.78,-92.11
55814,DULUTH FEDERAL PRISON,46.78,-92.11
55815,DULUTH,46.78,-92.11
55816,DULUTH,46.78,-92.11
56236,DUMONT,45.71,-96.42
56236,JOHNSON,45.71,-96.42
55019,DUNDAS,44.42,-93.2
56127,DUNNELL,43.56,-94.77
56446,EAGLE BEND,46.16,-95.03
56024,EAGLE LAKE,44.15,-93.88
56025,EASTON,43.76,-93.9
56237,ECHO,44.62,-95.41
55329,EDEN VALLEY,45.32,-94.54
56128,EDGERTON,43.87,-96.13
55931,EITZEN,43.5,-91.46
55932,ELGIN,44.13,-92.25
55932,POTSDAM,44.13,-92.25
55330,ELK RIVER,45.33,-93.56
55330,BURNS TOWNSHIP,45.33,-93.56
55330,BURNS TWNSHP,45.33,-93.56
55330,NOWTHEN,45.33,-93.56
55330,OTSEGO,45.33,-93.56
56026,ELLENDALE,43.87,-93.3
56129,ELLSWORTH,43.52,-96.01
56027,ELMORE,43.5,-94.08
56325,ELROSA,45.56,-94.94
55731,ELY,47.9,-91.85
55796,WINTON,47.92,-91.8
55796,FALL LAKE,47.92,-91.8
56028,ELYSIAN,44.2,-93.67
55732,EMBARRASS,47.65,-92.19
55732,PIKE,47.65,-92.19
55732,WAASA,47.65,-92.19
56447,EMILY,46.75,-93.96
56029,EMMONS,43.5,-93.48
55733,ESKO,46.7,-92.36
56326,EVANSVILLE,46.0,-95.68
55734,EVELETH,47.46,-92.54
55734,CENTRAL LAKES,47.46,-92.54
55734,FAYAL,47.46,-92.54
55734,GENOA,47.46,-92.54
55734,LEONIDAS,47.46,-92.54
55331,EXCELSIOR,44.9,-93.56
55331,GREENWOOD,44.9,-93.56
55331,MINNETRISTA,44.9,-93.56
55331,DEEPHAVEN,44.9,-93.56
55331,ORONO,44.9,-93.56
55331,SHOREWOOD,44.9,-93.56
55331,TONKA BAY,44.9,-93.56
55934,EYOTA,43.98,-92.22
55934,VIOLA,43.98,-92.22
55934,PREDMORE,43.98,-92.22
55332,FAIRFAX,44.52,-94.72
56031,FAIRMONT,43.64,-94.45
56075,NORTHROP,43.73,-94.43
56075,FAIRMONT,43.73,-94.43
55021,FARIBAULT,44.29,-93.27
55024,FARMINGTON,44.65,-93.17
55024,LAKEVILLE,44.65,-93.17
55024,LAKEVLE,44.65,-93.17
56448,FIFTY LAKES,46.74,-94.09
55603,FINLAND,47.41,-91.24
55603,MURPHY CITY,47.41,-91.24
55735,FINLAYSON,46.2,-92.92
55735,BREMEN,46.2,-92.92
55735,GIESE,46.2,-92.92
55735,PINE LAKE,46.2,-92.92
55735,WAGNER,46.2,-92.92
56328,FLENSBURG,45.94,-94.53
55736,FLOODWOOD,46.92,-92.91
55736,WAWINA,46.92,-92.91
55736,CEDAR VALLEY,46.92,-92.91
55736,HALDEN,46.92,-92.91
55736,PRAIRIE LAKE,46.92,-92.91
55736,VAN BUREN,46.92,-92.91
56329,FOLEY,45.66,-93.9
56329,OAK PARK,45.66,-93.9
56329,RONNEBY,45.66,-93.9
56357,OAK PARK,45.69,-93.94
56357,FOLEY,45.69,-93.94
56357,RONNEBY,45.69,-93.94
55738,FORBES,47.28,-92.61
55738,ZIM,47.28,-92.61
55025,FOREST LAKE,45.27,-92.98
55025,COLUMBUS,45.27,-92.98
56330,FORESTON,45.73,-93.7
56449,FORT RIPLEY,46.16,-94.36
55935,FOUNTAIN,43.74,-92.13
55333,FRANKLIN,44.53,-94.88
56032,FREEBORN,43.76,-93.56
56331,FREEPORT,45.66,-94.68
56331,SAINT ROSA,45.66,-94.68
55026,FRONTENAC,44.49,-92.35
56033,FROST,43.58,-93.92
56131,FULDA,43.87,-95.6
56131,DUNDEE,43.87,-95.6
56131,KINBRAE,43.87,-95.6
56034,GARDEN CITY,44.04,-94.18
56332,GARFIELD,45.94,-95.49
56450,GARRISON,46.3,-93.82
55334,GAYLORD,44.55,-94.21
56035,GENEVA,43.82,-93.26
56239,GHENT,44.51,-95.89
55335,GIBBON,44.53,-94.52
55741,GILBERT,47.49,-92.46
55741,MCKINLEY,47.49,-92.46
56333,GILMAN,45.73,-93.95
55336,GLENCOE,44.76,-94.14
55336,BISCAY,44.76,-94.14
56036,GLENVILLE,43.56,-93.27
56036,LONDON,43.56,-93.27
56036,MYRTLE,43.56,-93.27
56334,GLENWOOD,45.65,-95.38
56334,LONG BEACH,45.65,-95.38
56334,SEDAN,45.65,-95.38
56334,TERRACE,45.65,-95.38
56644,GONVICK,47.73,-95.51
56644,BERNER,47.73,-95.51
56644,HANGAARD,47.73,-95.51
56644,PINE LAKE,47.73,-95.51
56644,WINSOR,47.73,-95.51
55027,GOODHUE,44.4,-92.62
55027,BELLECHESTER,44.4,-92.62
56037,GOOD THUNDER,44.0,-94.07
56210,BARRY,45.55,-96.55
56240,GRACEVILLE,45.56,-96.43
56039,GRANADA,43.69,-94.34
55604,GRAND MARAIS,47.75,-90.34
55604,CROFTVILLE,47.75,-90.34
55604,MAPLE HILL,47.75,-90.34
55936,GRAND MEADOW,43.7,-92.57
55936,BENNINGTON,43.7,-92.57
55936,FRANKFORD,43.7,-92.57
55605,GRAND PORTAGE,47.96,-89.68
55730,GRAND RAPIDS,47.22,-93.52
55744,GRAND RAPIDS,47.22,-93.52
55745,GRAND RAPIDS,47.22,-93.52
55745,ARROWHEAD PROMOTION FULFILLM,47.22,-93.52
55029,GRANDY,45.63,-93.17
56241,GRANITE FALLS,44.81,-95.53
56241,HAZEL RUN,44.81,-95.53
55030,GRASSTON,45.85,-93.08
55036,HENRIETTE,45.87,-93.12
55036,GRASSTON,45.87,-93.12
55338,GREEN ISLE,44.67,-94.0
56335,GREENWALD,45.6,-94.85
56336,GREY EAGLE,45.82,-94.74
56243,GROVE CITY,45.15,-94.68
56646,GULLY,47.76,-95.62
56646,OLGA,47.76,-95.62
56452,HACKENSACK,46.92,-94.51
55339,HAMBURG,44.73,-93.96
55340,HAMEL,45.07,-93.58
55340,CORCORAN,45.07,-93.58
55340,MEDINA,45.07,-93.58
55031,HAMPTON,44.6,-93.0
55031,NEW TRIER,44.6,-93.0
56244,HANCOCK,45.49,-95.79
56245,HANLEY FALLS,44.69,-95.61
55341,HANOVER,45.15,-93.65
56041,HANSKA,44.14,-94.49
56134,HARDWICK,43.77,-96.19
55939,HARMONY,43.55,-92.0
55939,GRANGER,43.55,-92.0
55032,HARRIS,45.6,-92.98
56042,HARTLAND,43.8,-93.48
55033,HASTINGS,44.73,-92.85
55940,HAYFIELD,43.89,-92.84
55973,SARGEANT,43.8,-92.8
56043,HAYWARD,43.64,-93.24
55342,HECTOR,44.74,-94.71
56044,HENDERSON,44.53,-93.9
56136,HENDRICKS,44.5,-96.42
56248,HERMAN,45.81,-96.13
56137,HERON LAKE,43.79,-95.32
56453,HEWITT,46.32,-95.08
55746,HIBBING,47.4,-92.94
55746,KELLY LAKE,47.4,-92.94
55746,BROOKLYN,47.4,-92.94
55746,KITZVILLE,47.4,-92.94
55746,LAVINIA,47.4,-92.94
55746,LEETONIA,47.4,-92.94
55746,LITTLE SWAN,47.4,-92.94
55746,LYNWOOD,47.4,-92.94
55746,NORTH HIBBING,47.4,-92.94
55746,RUBY JUNCTION,47.4,-92.94
55746,SILICA,47.4,-92.94
55746,STUNTZ,47.4,-92.94
55746,WILPEN,47.4,-92.94
55747,HIBBING,47.4,-92.94
55748,HILL CITY,46.98,-93.59
55748,HAYPOINT,46.98,-93.59
55785,SWATARA,46.89,-93.67
55785,MACVILLE,46.89,-93.67
55785,SHOVEL LAKE,46.89,-93.67
56138,HILLS,43.52,-96.36
55037,HINCKLEY,46.01,-92.93
56647,HINES,47.68,-94.63
56647,HAGALI,47.68,-94.63
56339,HOFFMAN,45.83,-95.78
55941,HOKAH,43.76,-91.35
56340,HOLDINGFORD,45.73,-94.47
56139,HOLLAND,44.09,-96.19
56045,HOLLANDALE,43.75,-93.2
56249,HOLLOWAY,45.24,-95.91
56341,HOLMES CITY,45.8,-95.57
56046,HOPE,43.97,-93.34
55305,HOPKINS,44.92,-93.4
55305,MINNETONKA,44.92,-93.4
55343,HOPKINS,44.92,-93.4
55343,EDEN PRAIRIE,44.92,-93.4
55343,MINETONKA MLS,44.92,-93.4
55343,MINNETNKA MLS,44.92,-93.4
55343,MINNETONKA,44.92,-93.4
55343,MINNETONKA MILLS,44.92,-93.4
55343,EDINA,44.92,-93.4
55344,EDEN PRAIRIE,44.84,-93.45
55345,MINNETONKA,44.93,-93.46
55345,HOPKINS,44.93,-93.46
55346,EDEN PRAIRIE,44.84,-93.45
55347,EDEN PRAIRIE,44.84,-93.45
55943,HOUSTON,43.76,-91.57
55606,HOVLAND,47.83,-89.97
55349,HOWARD LAKE,45.05,-94.06
55575,HOWARD LAKE,45.05,-94.06
55750,HOYT LAKES,47.55,-92.11
55038,HUGO,45.15,-92.96
55038,CENTERVILLE,45.15,-92.96
55038,LINO LAKES,45.15,-92.96
55038,COLUMBUS,45.15,-92.96
55350,HUTCHINSON,44.88,-94.37
55350,CEDAR MILLS,44.88,-94.37
56649,INTERNATIONAL FALLS,48.58,-93.4
56649,INTL FALLS,48.58,-93.4
56141,IONA,43.91,-95.78
55751,IRON,47.41,-92.64
55751,IRON JUNCTION,47.41,-92.64
55751,MCDAVITT,47.41,-92.64
56455,IRONTON,46.48,-93.99
56455,RIVERTON,46.48,-93.99
55040,ISANTI,45.48,-93.25
56342,ISLE,46.14,-93.46
56142,IVANHOE,44.46,-96.25
56143,JACKSON,43.62,-94.98
56048,JANESVILLE,44.11,-93.7
56144,JASPER,43.84,-96.39
56144,TROSKY,43.84,-96.39
56145,JEFFERS,44.05,-95.19
55352,JORDAN,44.66,-93.63
56251,KANDIYOHI,45.13,-94.93
56050,KASOTA,44.29,-93.96
55944,KASSON,44.02,-92.75
55944,CANISTEO,44.02,-92.75
55753,KEEWATIN,47.4,-93.08
56650,KELLIHER,47.94,-94.44
56650,SAUM,47.94,-94.44
56650,SHOTLEY,47.94,-94.44
55945,KELLOGG,44.3,-91.99
55945,THEILMAN,44.3,-91.99
56147,KENNETH,43.75,-96.07
56343,KENSINGTON,45.77,-95.69
55946,KENYON,44.27,-92.98
55946,BOMBAY,44.27,-92.98
55946,MOLAND,44.27,-92.98
56252,KERKHOVEN,45.19,-95.32
55756,KERRICK,46.33,-92.58
55756,DUQUETTE,46.33,-92.58
55757,KETTLE RIVER,46.48,-92.87
56051,KIESTER,43.53,-93.71
56052,KILKENNY,44.31,-93.57
55353,KIMBALL,45.31,-94.3
55353,SAINT AUGUSTA,45.31,-94.3
55609,KNIFE RIVER,46.95,-91.78
55947,LA CRESCENT,43.82,-91.3
55947,DRESBACH,43.82,-91.3
56054,LAFAYETTE,44.44,-94.39
56054,LA FAYETTE,44.44,-94.39
56149,LAKE BENTON,44.26,-96.29
55041,LAKE CITY,44.44,-92.27
56055,LAKE CRYSTAL,44.1,-94.21
56055,NORTH MANKATO,44.1,-94.21
55042,LAKE ELMO,44.99,-92.9
55042,OAKDALE,44.99,-92.9
56150,LAKEFIELD,43.67,-95.17
56458,LAKE GEORGE,47.2,-94.99
55043,LAKELAND,44.95,-92.77
55043,LAKE SAINT CROIX BEACH,44.95,-92.77
55043,LAKELAND SHORES,44.95,-92.77
55043,LAKELAND SHRS,44.95,-92.77
55043,SAINT MARYS POINT,44.95,-92.77
55043,ST CROIX BCH,44.95,-92.77
55043,ST CROIX BEACH,44.95,-92.77
55043,ST MARYS POINT,44.95,-92.77
55043,ST MARYS PT,44.95,-92.77
56253,LAKE LILLIAN,44.94,-94.88
55044,LAKEVILLE,44.67,-93.24
55044,ANTLERS PARK,44.67,-93.24
55044,ARGONNE,44.67,-93.24
56151,LAKE WILSON,43.99,-95.95
56151,HADLEY,43.99,-95.95
56151,SLAYTON,43.99,-95.95
56152,LAMBERTON,44.22,-95.26
55949,LANESBORO,43.71,-91.97
55949,WHALAN,43.71,-91.97
55949,HIGHLAND,43.71,-91.97
55950,LANSING,43.74,-92.96
56461,LAPORTE,47.21,-94.75
56461,GUTHRIE,47.21,-94.75
56461,LA PORTE,47.21,-94.75
56056,LA SALLE,44.07,-94.57
56057,LE CENTER,44.38,-93.73
56651,LENGBY,47.51,-95.63
56153,LEOTA,43.8,-95.99
55951,LE ROY,43.51,-92.5
55354,LESTER PRAIRIE,44.88,-94.03
55354,LESTER PR,44.88,-94.03
56058,LE SUEUR,44.46,-93.9
55952,LEWISTON,43.98,-91.86
56060,LEWISVILLE,43.92,-94.43
55045,LINDSTROM,45.38,-92.84
56155,LISMORE,43.74,-95.94
55355,LITCHFIELD,45.11,-94.52
56345,LITTLE FALLS,45.97,-94.36
56345,SOBIESKI,45.97,-94.36
56345,ELMDALE,45.97,-94.36
56653,LITTLEFORK,48.39,-93.55
56653,HAPPYLAND,48.39,-93.55
56653,LINDFORD,48.39,-93.55
56669,KABETOGAMA,48.41,-93.21
56669,RAY,48.41,-93.21
56654,LOMAN,48.51,-93.8
56654,BLACK RIVER,48.51,-93.8
55356,LONG LAKE,44.98,-93.56
55356,ORONO,44.98,-93.56
56347,LONG PRAIRIE,45.97,-94.86
56347,LITTLE SAUK,45.97,-94.86
56655,LONGVILLE,46.98,-94.21
56655,BOY LAKE,46.98,-94.21
56655,BREVIK,46.98,-94.21
56655,INGUADONA,46.98,-94.21
56655,KEGO,46.98,-94.21
56655,WABEDO,46.98,-94.21
55046,LONSDALE,44.47,-93.42
55046,VESELI,44.47,-93.42
55357,LORETTO,45.05,-93.63
55357,INDEPENDENCE,45.05,-93.63
55357,CORCORAN,45.05,-93.63
55357,GREENFIELD,45.05,-93.63
55357,MEDINA,45.05,-93.63
55595,LORETTO,45.05,-93.63
55596,LORETTO,45.05,-93.63
55597,LORETTO,45.05,-93.63
55598,LORETTO,45.05,-93.63
55599,LORETTO,45.05,-93.63
56327,FARWELL,45.75,-95.61
56349,LOWRY,45.7,-95.51
56255,LUCAN,44.4,-95.41
55612,LUTSEN,47.63,-90.71
56156,LUVERNE,43.65,-96.2
55953,LYLE,43.5,-92.94
55953,NEVADA,43.5,-92.94
56157,LYND,44.38,-95.89
56350,MC GRATH,46.24,-93.27
55760,MCGREGOR,46.6,-93.3
55760,EAST LAKE,46.6,-93.3
55760,JEVNE,46.6,-93.3
55760,LAWLER,46.6,-93.3
55760,MINNEWANA,46.6,-93.3
55760,RICE RIVER,46.6,-93.3
55760,SALO,46.6,-93.3
55760,SHAMROCK,46.6,-93.3
55760,SHESHEBEE,46.6,-93.3
55760,SPALDING,46.6,-93.3
55760,TURNER,46.6,-93.3
55954,MABEL,43.52,-91.76
56062,MADELIA,44.04,-94.41
56256,MADISON,45.01,-96.18
56256,LOUISBURG,45.01,-96.18
56063,MADISON LAKE,44.2,-93.81
56158,MAGNOLIA,43.64,-96.07
55763,MAKINEN,47.35,-92.36
55763,COLVIN,47.35,-92.36
55763,MARKHAM,47.35,-92.36
56001,MANKATO,44.16,-93.99
56001,SKYLINE,44.16,-93.99
56002,MANKATO,44.16,-93.99
56002,N MANKATO,44.16,-93.99
56002,NO MANKATO,44.16,-93.99
56002,NORTH MANKATO,44.16,-93.99
56003,MANKATO,44.16,-93.99
56003,NORTH MANKATO,44.16,-93.99
56003,N MANKATO,44.16,-93.99
56003,NO MANKATO,44.16,-93.99
56006,MANKATO,44.16,-93.99
55955,MANTORVILLE,44.06,-92.75
55358,MAPLE LAKE,45.23,-94.0
55348,MAPLE PLAIN,45.0,-93.66
55359,MAPLE PLAIN,45.0,-93.66
55359,INDEPENDENCE,45.0,-93.66
55359,MINNETRISTA,45.0,-93.66
55359,MEDINA,45.0,-93.66
55359,ORONO,45.0,-93.66
55393,MAPLE PLAIN,45.0,-93.66
55570,MAPLE PLAIN,45.0,-93.66
55571,MAPLE PLAIN,45.0,-93.66
55574,MAPLE PLAIN,45.0,-93.66
55576,MAPLE PLAIN,45.0,-93.66
55578,MAPLE PLAIN,45.0,-93.66
55579,MAPLE PLAIN,45.0,-93.66
55592,MAPLE PLAIN,45.0,-93.66
55593,MAPLE PLAIN,45.0,-93.66
56065,MAPLETON,43.92,-93.95
55764,MARBLE,47.32,-93.29
55764,GREENWAY,47.32,-93.29
56657,MARCELL,47.59,-93.69
56257,MARIETTA,45.01,-96.41
56257,NASSAU,45.01,-96.41
55047,MARINE ON SAINT CROIX,45.2,-92.78
55047,MARINE ST CRX,45.2,-92.78
55047,MARINE,45.2,-92.78
55047,MARINE ON ST CROIX,45.2,-92.78
55047,NEW SCANDIA,45.2,-92.78
55047,ST CROIX,45.2,-92.78
56258,MARSHALL,44.45,-95.78
55360,MAYER,44.88,-93.88
56260,MAYNARD,44.9,-95.46
55956,MAZEPPA,44.27,-92.54
55765,MEADOWLANDS,47.07,-92.73
55765,TOIVOLA,47.07,-92.73
55049,MEDFORD,44.17,-93.24
55049,DEERFIELD,44.17,-93.24
56352,MELROSE,45.67,-94.81
56352,MEIRE GROVE,45.67,-94.81
56352,SPRING HILL,45.67,-94.81
56464,MENAHGA,46.74,-95.1
56464,BLUEBERRY,46.74,-95.1
56464,HUNTERSVILLE,46.74,-95.1
56464,MIDWAY,46.74,-95.1
56464,RUNEBERG,46.74,-95.1
56464,SHELL RIVER,46.74,-95.1
56465,MERRIFIELD,46.46,-94.17
56353,MILACA,45.75,-93.65
56363,PEASE,45.69,-93.65
56262,MILAN,45.11,-95.91
55957,MILLVILLE,44.24,-92.29
56263,MILROY,44.41,-95.55
56354,MILTONA,46.04,-95.29
55401,MINNEAPOLIS,44.96,-93.26
55402,MINNEAPOLIS,44.96,-93.26
55403,MINNEAPOLIS,44.96,-93.26
55404,MINNEAPOLIS,44.96,-93.26
55405,MINNEAPOLIS,44.96,-93.26
55406,MINNEAPOLIS,44.96,-93.26
55407,MINNEAPOLIS,44.96,-93.26
55408,MINNEAPOLIS,44.96,-93.26
55409,MINNEAPOLIS,44.96,-93.26
55410,MINNEAPOLIS,44.96,-93.26
55410,EDINA,44.96,-93.26
55411,MINNEAPOLIS,44.96,-93.26
55412,MINNEAPOLIS,44.96,-93.26
55413,MINNEAPOLIS,44.96,-93.26
55414,MINNEAPOLIS,44.96,-93.26
55415,MINNEAPOLIS,44.96,-93.26
55416,MINNEAPOLIS,44.96,-93.26
55416,EDINA,44.96,-93.26
55416,GOLDEN VALLEY,44.96,-93.26
55416,SAINT LOUIS PARK,44.96,-93.26
55416,ST LOUIS PARK,44.96,-93.26
55417,MINNEAPOLIS,44.96,-93.26
55418,MINNEAPOLIS,44.96,-93.26
55418,SAINT ANTHONY,44.96,-93.26
55418,ST ANTHNY VLG,44.96,-93.26
55418,ST ANTHONY,44.96,-93.26
55418,ST ANTHONY VILLAGE,44.96,-93.26
55419,MINNEAPOLIS,44.96,-93.26
55420,MINNEAPOLIS,44.96,-93.26
55420,BLOOMINGTON,44.96,-93.26
55421,MINNEAPOLIS,44.96,-93.26
55421,COLUMBIA HEIGHTS,44.96,-93.26
55421,COLUMBIA HTS,44.96,-93.26
55421,FRIDLEY,44.96,-93.26
55421,HILLTOP,44.96,-93.26
55421,SAINT ANTHONY,44.96,-93.26
55421,ST ANTHONY,44.96,-93.26
55421,ST ANTHONY VILLAGE,44.96,-93.26
55422,MINNEAPOLIS,44.96,-93.26
55422,CRYSTAL,44.96,-93.26
55422,GOLDEN VALLEY,44.96,-93.26
55422,ROBBINSDALE,44.96,-93.26
55423,MINNEAPOLIS,44.96,-93.26
55423,EDINA,44.96,-93.26
55423,RICHFIELD,44.96,-93.26
55424,MINNEAPOLIS,44.96,-93.26
55424,EDINA,44.96,-93.26
55424,SAINT LOUIS PARK,44.96,-93.26
55424,ST LOUIS PARK,44.96,-93.26
55425,MINNEAPOLIS,44.96,-93.26
55425,BLOOMINGTON,44.96,-93.26
55426,MINNEAPOLIS,44.96,-93.26
55426,GOLDEN VALLEY,44.96,-93.26
55426,SAINT LOUIS PARK,44.96,-93.26
55426,ST LOUIS PARK,44.96,-93.26
55427,MINNEAPOLIS,44.96,-93.26
55427,CRYSTAL,44.96,-93.26
55427,GOLDEN VALLEY,44.96,-93.26
55427,NEW HOPE,44.96,-93.26
55428,MINNEAPOLIS,44.96,-93.26
55428,BROOKLYN CENTER,44.96,-93.26
55428,BROOKLYN CTR,44.96,-93.26
55428,BROOKLYN PARK,44.96,-93.26
55428,CRYSTAL,44.96,-93.26
55428,NEW HOPE,44.96,-93.26
55429,MINNEAPOLIS,44.96,-93.26
55429,BROOKLYN CENTER,44.96,-93.26
55429,BROOKLYN CTR,44.96,-93.26
55429,BROOKLYN PARK,44.96,-93.26
55429,CRYSTAL,44.96,-93.26
55429,BROOKLYN PK,44.96,-93.26
55430,MINNEAPOLIS,44.96,-93.26
55430,BROOKLYN CENTER,44.96,-93.26
55430,BROOKLYN CTR,44.96,-93.26
55431,MINNEAPOLIS,44.96,-93.26
55431,BLOOMINGTON,44.96,-93.26
55432,MINNEAPOLIS,44.96,-93.26
55432,FRIDLEY,44.96,-93.26
55432,SPRING LAKE PARK,44.96,-93.26
55432,SPRING LK PK,44.96,-93.26
55433,MINNEAPOLIS,44.96,-93.26
55433,COON RAPIDS,44.96,-93.26
55434,MINNEAPOLIS,44.96,-93.26
55434,BLAINE,44.96,-93.26
55435,MINNEAPOLIS,44.96,-93.26
55435,BLOOMINGTON,44.96,-93.26
55435,EDINA,44.96,-93.26
55436,MINNEAPOLIS,44.96,-93.26
55436,EDINA,44.96,-93.26
55436,SAINT LOUIS PARK,44.96,-93.26
55436,ST LOUIS PARK,44.96,-93.26
55436,ST LOUIS PK,44.96,-93.26
55437,MINNEAPOLIS,44.96,-93.26
55437,BLOOMINGTON,44.96,-93.26
55438,MINNEAPOLIS,44.96,-93.26
55438,BLOOMINGTON,44.96,-93.26
55439,MINNEAPOLIS,44.96,-93.26
55439,EDINA,44.96,-93.26
55439,BLOOMINGTON,44.96,-93.26
55440,MINNEAPOLIS,44.96,-93.26
55440,MINN,44.96,-93.26
55441,MINNEAPOLIS,44.96,-93.26
55441,MEDICINE LAKE,44.96,-93.26
55441,PLYMOUTH,44.96,-93.26
55442,MINNEAPOLIS,44.96,-93.26
55442,PLYMOUTH,44.96,-93.26
55443,MINNEAPOLIS,44.96,-93.26
55443,BROOKLYN CENTER,44.96,-93.26
55443,BROOKLYN CTR,44.96,-93.26
55443,BROOKLYN PARK,44.96,-93.26
55443,BROOKLYN PK,44.96,-93.26
55444,MINNEAPOLIS,44.96,-93.26
55444,BROOKLYN CENTER,44.96,-93.26
55444,BROOKLYN CTR,44.96,-93.26
55444,BROOKLYN PARK,44.96,-93.26
55444,BROOKLYN PK,44.96,-93.26
55445,MINNEAPOLIS,44.96,-93.26
55445,BROOKLYN PARK,44.96,-93.26
55445,BROOKLYN PK,44.96,-93.26
55446,MINNEAPOLIS,44.96,-93.26
55446,PLYMOUTH,44.96,-93.26
55447,MINNEAPOLIS,44.96,-93.26
55447,PLYMOUTH,44.96,-93.26
55448,MINNEAPOLIS,44.96,-93.26
55448,COON RAPIDS,44.96,-93.26
55449,MINNEAPOLIS,44.96,-93.26
55449,BLAINE,44.96,-93.26
55450,MINNEAPOLIS,44.96,-93.26
55454,MINNEAPOLIS,44.96,-93.26
55455,MINNEAPOLIS,44.96,-93.26
55458,MINNEAPOLIS,44.96,-93.26
55459,MINNEAPOLIS,44.96,-93.26
55460,MINNEAPOLIS,44.96,-93.26
55467,MINNEAPOLIS,44.97,-93.26
55467,WELLS FARGO HOME MORTGAGE,44.97,-93.26
55470,MINNEAPOLIS,44.96,-93.26
55472,MINNEAPOLIS,44.96,-93.26
55472,ABMPS,44.96,-93.26
55473,MINNEAPOLIS,44.96,-93.26
55473,NORWOOD YOUNG AMERICA,44.96,-93.26
55473,NYA,44.96,-93.26
55474,MINNEAPOLIS,44.96,-93.26
55474,AMERIPRISE FINANCIAL,44.96,-93.26
55478,MINNEAPOLIS,44.96,-93.26
55478,MACYS,44.96,-93.26
55479,MINNEAPOLIS,44.96,-93.26
55479,WELLS FARGO BANK,44.96,-93.26
55480,MINNEAPOLIS,44.96,-93.26
55483,MINNEAPOLIS,44.96,-93.26
55483,QWEST,44.96,-93.26
55484,MINNEAPOLIS,44.96,-93.26
55484,EXCEL ENERGY,44.96,-93.26
55485,MINNEAPOLIS,44.96,-93.26
55485,WELLS FARGO BANK,44.96,-93.26
55486,MINNEAPOLIS,44.96,-93.26
55486,US BANK,44.96,-93.26
55487,MINNEAPOLIS,44.96,-93.26
55487,HENNEPIN COUNTY GOVT CTR,44.96,-93.26
55488,MINNEAPOLIS,44.96,-93.26
55488,MINNEAPOLIS TRIBUNE,44.96,-93.26
56264,MINNEOTA,44.56,-95.98
56264,SAINT LEO,44.56,-95.98
55959,MINNESOTA CITY,44.09,-91.75
55959,MINN CITY,44.09,-91.75
56068,MINNESOTA LAKE,43.84,-93.82
56068,MINNESOTA LK,43.84,-93.82
56660,MIZPAH,47.92,-94.21
56660,FOREST GROVE,47.92,-94.21
56660,GEMMELL,47.92,-94.21
56660,MOZEPPA,47.92,-94.21
56265,MONTEVIDEO,44.95,-95.71
56069,MONTGOMERY,44.43,-93.58
55362,MONTICELLO,45.3,-93.8
55362,OTSEGO,45.3,-93.8
55365,MONTICELLO,45.3,-93.8
55565,MONTICELLO,45.3,-93.8
55580,MONTICELLO,45.3,-93.8
55581,MONTICELLO,45.3,-93.8
55582,MONTICELLO,45.3,-93.8
55584,MONTICELLO,45.3,-93.8
55585,MONTICELLO,45.3,-93.8
55586,MONTICELLO,45.3,-93.8
55587,MONTICELLO,45.3,-93.8
55588,MONTICELLO,45.3,-93.8
55589,MONTICELLO,45.3,-93.8
55590,MONTICELLO,45.3,-93.8
55591,MONTICELLO,45.3,-93.8
55363,MONTROSE,45.06,-93.91
55767,MOOSE LAKE,46.44,-92.76
55051,MORA,45.87,-93.29
55051,BRUNSWICK,45.87,-93.29
55051,KNIFE LAKE,45.87,-93.29
55051,QUAMBA,45.87,-93.29
55051,WARMAN,45.87,-93.29
56266,MORGAN,44.41,-94.92
56266,EVAN,44.41,-94.92
56267,MORRIS,45.58,-95.9
55052,MORRISTOWN,44.22,-93.44
56270,MORTON,44.55,-94.98
56466,MOTLEY,46.33,-94.64
55364,MOUND,44.93,-93.66
55364,MINNETRISTA,44.93,-93.66
55364,ORONO,44.93,-93.66
55364,SHOREWOOD,44.93,-93.66
55758,KINNEY,47.52,-92.72
55768,MOUNTAIN IRON,47.52,-92.62
55768,PARKVILLE,47.52,-92.62
55768,NICHOLS,47.52,-92.62
56159,MOUNTAIN LAKE,43.94,-94.92
56159,MT LAKE,43.94,-94.92
56271,MURDOCK,45.22,-95.39
56271,DE GRAFF,45.22,-95.39
55769,NASHWAUK,47.38,-93.16
55769,COOLEY,47.38,-93.16
55769,LONE PINE,47.38,-93.16
56355,NELSON,45.88,-95.26
55053,NERSTRAND,44.34,-93.06
55053,WHEELING,44.34,-93.06
56467,NEVIS,46.96,-94.84
56467,MANTRAP,46.96,-94.84
56467,NEBISH,46.96,-94.84
55366,NEW AUBURN,44.67,-94.22
55367,NEW GERMANY,44.88,-93.97
56273,NEW LONDON,45.29,-94.94
56273,HAWICK,45.29,-94.94
55020,ELKO NEW MARKET,44.56,-93.32
55020,ELKO,44.56,-93.32
55020,ELKO NEW MRKT,44.56,-93.32
55054,ELKO NEW MARKET,44.57,-93.34
55054,ELKO NEW MRKT,44.57,-93.34
55054,NEW MARKET,44.57,-93.34
56356,NEW MUNICH,45.63,-94.75
55055,NEWPORT,44.87,-92.99
56071,NEW PRAGUE,44.54,-93.57
56071,HEIDELBERG,44.54,-93.57
56072,NEW RICHLAND,43.89,-93.49
56030,ESSIG,44.32,-94.57
56073,NEW ULM,44.31,-94.46
56073,ESSIG,44.31,-94.46
56073,KLOSSNER,44.31,-94.46
56073,SEARLES,44.31,-94.46
56084,SEARLES,44.25,-94.46
56074,NICOLLET,44.27,-94.18
56459,LAKE HUBERT,46.5,-94.25
56468,NISSWA,46.5,-94.29
56468,LAKE HUBERT,46.5,-94.29
56468,LAKE SHORE,46.5,-94.29
56468,LAKE EDWARDS,46.5,-94.29
56274,NORCROSS,45.86,-96.19
55056,NORTH BRANCH,45.51,-92.97
55056,BRANCH,45.51,-92.97
55056,SUNRISE,45.51,-92.97
55056,WEBER,45.51,-92.97
55057,NORTHFIELD,44.45,-93.16
55057,WATERFORD,44.45,-93.16
56661,NORTHOME,47.87,-94.26
56661,ARDENHURST,47.87,-94.26
56661,BERGVILLE,47.87,-94.26
56661,DORA LAKE,47.87,-94.26
56661,GRATTAN,47.87,-94.26
56661,KINGHURST,47.87,-94.26
56661,NORE,47.87,-94.26
56661,SHOOKS,47.87,-94.26
56661,WILDWOOD,47.87,-94.26
56276,ODESSA,45.26,-96.33
56160,ODIN,43.86,-94.74
56358,OGILVIE,45.83,-93.41
56161,OKABENA,43.73,-95.31
56277,OLIVIA,44.77,-94.99
56359,ONAMIA,46.06,-93.66
56162,ORMSBY,43.85,-94.69
55960,ORONOCO,44.16,-92.54
55960,DOUGLAS,44.16,-92.54
55771,ORR,48.06,-92.82
55771,BUYCK,48.06,-92.82
55771,GHEEN,48.06,-92.82
55771,ASH LAKE,48.06,-92.82
55771,CUSSON,48.06,-92.82
55771,GLENDALE,48.06,-92.82
55771,KINMOUNT,48.06,-92.82
55771,LEIDING,48.06,-92.82
55771,PORTAGE,48.06,-92.82
55771,VERMILION DAM,48.06,-92.82
55772,NETT LAKE,48.11,-93.07
55772,ORR,48.11,-93.07
56278,ORTONVILLE,45.3,-96.44
56360,OSAKIS,45.86,-95.15
55311,OSSEO,45.11,-93.39
55311,MAPLE GROVE,45.11,-93.39
55311,CORCORAN,45.11,-93.39
55311,HASSAN,45.11,-93.39
55369,OSSEO,45.11,-93.39
55369,MAPLE GROVE,45.11,-93.39
55369,DAYTON,45.11,-93.39
55369,HASSAN,45.11,-93.39
55569,OSSEO,45.11,-93.39
55569,MAPLE GROVE,45.11,-93.39
55961,OSTRANDER,43.61,-92.42
56662,OUTING,46.82,-93.94
56662,BEULAH,46.82,-93.94
56662,CROOKED LAKE,46.82,-93.94
56662,RHEIDERLAND,46.82,-93.94
56662,TRELIPE,46.82,-93.94
55060,OWATONNA,44.08,-93.22
55060,HAVANA,44.08,-93.22
55060,LITOMYSL,44.08,-93.22
55060,PRATT,44.08,-93.22
56469,PALISADE,46.71,-93.49
56469,LIBBY,46.71,-93.49
56469,LOGAN,46.71,-93.49
56469,MORRISON,46.71,-93.49
56469,VERDON,46.71,-93.49
56469,WAUKENABO,46.71,-93.49
56469,WORKMAN,46.71,-93.49
56361,PARKERS PRAIRIE,46.15,-95.32
56361,PARKERS PR,46.15,-95.32
56470,PARK RAPIDS,46.91,-95.06
56470,LAKE ITASCA,46.91,-95.06
56470,ARAGO,46.91,-95.06
56470,DORSET,46.91,-95.06
56470,HUBBARD,46.91,-95.06
56470,LAKE EMMA,46.91,-95.06
56470,TODD,46.91,-95.06
56362,PAYNESVILLE,45.37,-94.71
56362,LAKE HENRY,45.37,-94.71
56362,SPRING HILL,45.37,-94.71
56078,PEMBERTON,44.0,-93.78
55775,PENGILLY,47.33,-93.19
56279,PENNOCK,45.14,-95.17
56472,PEQUOT LAKES,46.6,-94.32
56472,BREEZY POINT,46.6,-94.32
56472,JENKINS,46.6,-94.32
56472,PINE RIVER,46.6,-94.32
55962,PETERSON,43.78,-91.83
55962,RUSHFORD VILLAGE,43.78,-91.83
55962,RUSHFORD VLG,43.78,-91.83
55962,ARENDAHL,43.78,-91.83
56317,BUCKMAN,45.89,-94.09
56338,HILLMAN,46.0,-93.88
56344,LASTRUP,46.03,-94.06
56364,PIERZ,45.97,-94.1
56364,HARDING,45.97,-94.1
56364,GENOLA,45.97,-94.1
56473,PILLAGER,46.32,-94.47
56473,SYLVAN,46.32,-94.47
55063,PINE CITY,45.83,-92.96
55063,BEROUN,45.83,-92.96
55063,CHENGWATANA,45.83,-92.96
55063,WEST ROCK,45.83,-92.96
55963,PINE ISLAND,44.21,-92.64
56456,JENKINS,46.65,-94.32
56456,PINE RIVER,46.65,-94.32
56474,PINE RIVER,46.72,-94.39
56474,JENKINS,46.72,-94.39
56474,BARCLAY,46.72,-94.39
56474,BLIND LAKE,46.72,-94.39
56474,CHICKAMAW BEACH,46.72,-94.39
56474,PONTO LAKE,46.72,-94.39
56474,SWANBURG,46.72,-94.39
56474,WALDEN,46.72,-94.39
56474,WILSON,46.72,-94.39
56474,WOODROW,46.72,-94.39
56164,PIPESTONE,44.0,-96.31
56164,HATFIELD,44.0,-96.31
56164,VERDI,44.0,-96.31
56177,TROSKY,43.88,-96.25
55964,PLAINVIEW,44.16,-92.16
55370,PLATO,44.77,-94.03
56666,PONEMAH,48.04,-94.9
56280,PORTER,44.64,-96.16
55965,PRESTON,43.67,-92.08
55965,CARIMONA,43.67,-92.08
55965,GREENLEAFTON,43.67,-92.08
55371,PRINCETON,45.57,-93.59
55377,SANTIAGO,45.45,-93.83
56281,PRINSBURG,44.93,-95.18
55372,PRIOR LAKE,44.72,-93.43
55372,SHAKOPEE,44.72,-93.43
56667,PUPOSKY,47.67,-94.9
56667,ALASKA,47.67,-94.9
56667,DURAND,47.67,-94.9
56667,LIBERTY,47.67,-94.9
56667,MAPLE RIDGE,47.67,-94.9
56667,NEBISH,47.67,-94.9
56667,O BRIEN,47.67,-94.9
55967,RACINE,43.77,-92.48
56475,RANDALL,46.08,-94.49
56475,CLOUGH,46.08,-94.49
56475,PARKER,46.08,-94.49
55065,RANDOLPH,44.52,-93.01
56668,RANIER,48.61,-93.34
56282,RAYMOND,45.01,-95.23
56670,REDBY,47.84,-94.93
56671,REDLAKE,47.83,-95.08
55066,RED WING,44.58,-92.6
56283,REDWOOD FALLS,44.54,-95.11
56283,DELHI,44.54,-95.11
56283,NORTH REDWOOD,44.54,-95.11
56672,REMER,47.05,-93.91
56672,BOY RIVER,47.05,-93.91
56672,LIMA,47.05,-93.91
56672,SLATER,47.05,-93.91
56672,SMOKY HOLLOW,47.05,-93.91
56672,THUNDER LAKE,47.05,-93.91
56284,RENVILLE,44.79,-95.21
56166,REVERE,44.21,-95.36
56367,RICE,45.74,-94.22
56368,RICHMOND,45.45,-94.51
56371,ROSCOE,45.43,-94.63
55901,ROCHESTER,44.01,-92.47
55902,ROCHESTER,44.01,-92.47
55903,ROCHESTER,44.01,-92.47
55904,ROCHESTER,44.01,-92.47
55905,ROCHESTER,44.01,-92.47
55905,MAYO CLINIC,44.01,-92.47
55906,ROCHESTER,44.01,-92.47
55373,ROCKFORD,45.08,-93.73
55373,GREENFIELD,45.08,-93.73
55373,INDEPENDENCE,45.08,-93.73
55572,ROCKFORD,45.0,-93.66
55572,GREENFIELD,45.0,-93.66
55577,ROCKFORD,45.0,-93.66
56369,ROCKVILLE,45.47,-94.33
55374,ROGERS,45.19,-93.55
55374,OTSEGO,45.19,-93.55
55374,CORCORAN,45.19,-93.55
55374,HASSAN,45.19,-93.55
55969,ROLLINGSTONE,44.09,-91.81
56673,ROOSEVELT,48.8,-95.1
56673,ARNESEN,48.8,-95.1
56673,LAONA,48.8,-95.1
56682,SWIFT,48.85,-95.22
56682,ROOSEVELT,48.85,-95.22
55970,ROSE CREEK,43.6,-92.82
55068,ROSEMOUNT,44.74,-93.07
55068,LAKEVILLE,44.74,-93.07
56167,ROUND LAKE,43.53,-95.46
56373,ROYALTON,45.83,-94.28
55067,ROCK CREEK,45.75,-92.9
55067,RUSH CITY,45.75,-92.9
55069,RUSH CITY,45.68,-92.96
55971,RUSHFORD,43.81,-91.75
55971,RUSHFORD VILLAGE,43.81,-91.75
55971,RUSHFORD VLG,43.81,-91.75
55971,BRATSBERG,43.81,-91.75
55971,HART,43.81,-91.75
55971,SOUTH RUSHFORD,43.81,-91.75
56165,READING,43.71,-95.75
56168,RUSHMORE,43.62,-95.79
56169,RUSSELL,44.31,-95.94
56170,RUTHTON,44.17,-96.1
56170,FLORENCE,44.17,-96.1
56285,SACRED HEART,44.78,-95.35
55702,ALBORN,46.97,-92.57
55779,SAGINAW,46.85,-92.44
55779,CULVER,46.85,-92.44
55779,BREVATOR,46.85,-92.44
55779,GRAND LAKE,46.85,-92.44
55779,HARNELL PARK,46.85,-92.44
55779,INDUSTRIAL,46.85,-92.44
55791,TWIG,46.89,-92.36
55375,SAINT BONIFACIUS,44.9,-93.74
55375,CROWN COLLEGE,44.9,-93.74
55375,MINNETRISTA,44.9,-93.74
55375,ST BONIFACIUS,44.9,-93.74
55375,BIBLE COLLEGE,44.9,-93.74
55972,SAINT CHARLES,43.96,-92.06
55972,SARATOGA,43.96,-92.06
55972,ST CHARLES,43.96,-92.06
55972,TROY,43.96,-92.06
56080,SAINT CLAIR,44.08,-93.85
56080,ST CLAIR,44.08,-93.85
56301,SAINT CLOUD,45.55,-94.17
56301,SAINT AUGUSTA,45.55,-94.17
56302,SAINT CLOUD,45.55,-94.17
56303,SAINT CLOUD,45.55,-94.17
56303,FORADA,45.55,-94.17
56303,SARTELL,45.55,-94.17
56304,SAINT CLOUD,45.55,-94.17
56372,SAINT CLOUD,45.55,-94.17
56372,FINGERHUT BUS REPLY,45.55,-94.17
56379,SAUK RAPIDS,45.59,-94.16
56387,WAITE PARK,45.55,-94.22
56387,SAINT CLOUD,45.55,-94.22
56388,WAITE PARK,45.56,-94.22
56388,SAINT CLOUD,45.56,-94.22
56393,SAINT CLOUD,45.55,-94.17
56393,FINGERHUT SWEEPSTAKES,45.55,-94.17
56395,SAINT CLOUD,45.55,-94.17
56395,FINGERHUT,45.55,-94.17
56396,SAINT CLOUD,45.55,-94.17
56396,FINGERHUT,45.55,-94.17
56397,SAINT CLOUD,45.55,-94.17
56398,SAINT CLOUD,45.55,-94.17
56399,SAINT CLOUD,45.55,-94.17
56399,FDCI,45.55,-94.17
55070,SAINT FRANCIS,45.39,-93.38
55070,ST FRANCIS,45.39,-93.38
56081,SAINT JAMES,43.98,-94.62
56081,ST JAMES,43.98,-94.62
56374,SAINT JOSEPH,45.56,-94.31
56374,ST JOSEPH,45.56,-94.31
56375,SAINT STEPHEN,45.7,-94.27
56375,ST STEPHEN,45.7,-94.27
56376,SAINT MARTIN,45.5,-94.66
56376,ST MARTIN,45.5,-94.66
55376,SAINT MICHAEL,45.21,-93.66
55101,SAINT PAUL,44.94,-93.1
55102,SAINT PAUL,44.94,-93.1
55103,SAINT PAUL,44.94,-93.1
55104,SAINT PAUL,44.94,-93.1
55105,SAINT PAUL,44.94,-93.1
55106,SAINT PAUL,44.94,-93.1
55106,MAPLEWOOD,44.94,-93.1
55107,SAINT PAUL,44.94,-93.1
55107,W SAINT PAUL,44.94,-93.1
55107,WEST SAINT PAUL,44.94,-93.1
55107,W ST PAUL,44.94,-93.1
55107,WEST ST PAUL,44.94,-93.1
55108,SAINT PAUL,44.94,-93.1
55108,FALCON HEIGHTS,44.94,-93.1
55108,FALCON HGTS,44.94,-93.1
55108,LAUDERDALE,44.94,-93.1
55109,SAINT PAUL,44.94,-93.1
55109,LITTLE CANADA,44.94,-93.1
55109,MAPLEWOOD,44.94,-93.1
55109,N SAINT PAUL,44.94,-93.1
55109,NORTH SAINT PAUL,44.94,-93.1
55109,NORTH ST PAUL,44.94,-93.1
55109,VADNAIS HEIGHTS,44.94,-93.1
55110,SAINT PAUL,44.94,-93.1
55110,DELLWOOD,44.94,-93.1
55110,VADNAIS HEIGHTS,44.94,-93.1
55110,VADNAIS HTS,44.94,-93.1
55110,WHITE BEAR LAKE,44.94,-93.1
55110,WHITE BEAR LK,44.94,-93.1
55110,WHITE BEAR TOWNSHIP,44.94,-93.1
55110,WHITE BEAR TP,44.94,-93.1
55110,BIRCHWOOD,44.94,-93.1
55110,GEM LAKE,44.94,-93.1
55110,GRANT,44.94,-93.1
55110,GRANT TOWNSHIP,44.94,-93.1
55110,LINO LAKES,44.94,-93.1
55111,SAINT PAUL,44.94,-93.1
55111,FORT SNELLING,44.94,-93.1
55111,FORT SNELLING MILITARY RESV,44.94,-93.1
55112,SAINT PAUL,44.94,-93.1
55112,ARDEN HILLS,44.94,-93.1
55112,MOUNDS VIEW,44.94,-93.1
55112,NEW BRIGHTON,44.94,-93.1
55112,MOUNDSVIEW,44.94,-93.1
55112,ROSEVILLE,44.94,-93.1
55113,SAINT PAUL,44.94,-93.1
55113,FALCON HEIGHTS,44.94,-93.1
55113,FALCON HGTS,44.94,-93.1
55113,LAUDERDALE,44.94,-93.1
55113,LITTLE CANADA,44.94,-93.1
55113,ROSEVILLE,44.94,-93.1
55114,SAINT PAUL,44.94,-93.1
55115,SAINT PAUL,44.94,-93.1
55115,MAHTOMEDI,44.94,-93.1
55115,PINE SPRINGS,44.94,-93.1
55115,WHITE BEAR LAKE,44.94,-93.1
55115,WHITE BEAR LK,44.94,-93.1
55115,GRANT,44.94,-93.1
55115,GRANT TOWNSHIP,44.94,-93.1
55116,SAINT PAUL,44.94,-93.1
55117,SAINT PAUL,44.94,-93.1
55117,LITTLE CANADA,44.94,-93.1
55117,MAPLEWOOD,44.94,-93.1
55118,SAINT PAUL,44.94,-93.1
55118,MENDOTA HEIGHTS,44.94,-93.1
55118,MENDOTA HTS,44.94,-93.1
55118,SUNFISH LAKE,44.94,-93.1
55118,W SAINT PAUL,44.94,-93.1
55118,W ST PAUL,44.94,-93.1
55118,WEST SAINT PAUL,44.94,-93.1
55118,WEST ST PAUL,44.94,-93.1
55118,LILYDALE,44.94,-93.1
55119,SAINT PAUL,44.94,-93.1
55119,MAPLEWOOD,44.94,-93.1
55120,SAINT PAUL,44.94,-93.1
55120,EAGAN,44.94,-93.1
55120,MENDOTA HEIGHTS,44.94,-93.1
55120,MENDOTA HTS,44.94,-93.1
55121,SAINT PAUL,44.94,-93.1
55121,EAGAN,44.94,-93.1
55122,SAINT PAUL,44.94,-93.1
55122,EAGAN,44.94,-93.1
55123,SAINT PAUL,44.94,-93.1
55123,EAGAN,44.94,-93.1
55124,SAINT PAUL,44.94,-93.1
55124,APPLE VALLEY,44.94,-93.1
55125,SAINT PAUL,44.94,-93.1
55125,WOODBURY,44.94,-93.1
55126,SAINT PAUL,44.94,-93.1
55126,ARDEN HILLS,44.94,-93.1
55126,NO OAKS,44.94,-93.1
55126,ROSEVILLE,44.94,-93.1
55126,SHOREVIEW,44.94,-93.1
55126,LINO LAKES,44.94,-93.1
55127,SAINT PAUL,44.94,-93.1
55127,LITTLE CANADA,44.94,-93.1
55127,NORTH OAKS,44.94,-93.1
55127,VADNAIS HEIGHTS,44.94,-93.1
55127,VADNAIS HTS,44.94,-93.1
55127,WHITE BEAR LK,44.94,-93.1
55128,SAINT PAUL,44.94,-93.1
55128,LANDFALL VILLAGE,44.94,-93.1
55128,LANDFALL VLG,44.94,-93.1
55128,OAKDALE,44.94,-93.1
55128,PINE SPRINGS,44.94,-93.1
55129,SAINT PAUL,44.94,-93.1
55129,WOODBURY,44.94,-93.1
55130,SAINT PAUL,44.97,-93.08
55133,SAINT PAUL,44.94,-93.1
55133,MINN MINING BOXES,44.94,-93.1
55144,SAINT PAUL,44.94,-93.1
55144,MAPLEWOOD,44.94,-93.1
55144,3 M,44.94,-93.1
55145,SAINT PAUL,44.94,-93.1
55145,STATE TAX DEPT,44.94,-93.1
55146,SAINT PAUL,44.94,-93.1
55146,STATE TAX DEPT,44.94,-93.1
55150,MENDOTA,44.88,-93.15
55150,SAINT PAUL,44.88,-93.15
55155,SAINT PAUL,44.94,-93.1
55155,STATE OFFICES,44.94,-93.1
55164,SAINT PAUL,44.94,-93.1
55165,SAINT PAUL,44.94,-93.1
55166,SAINT PAUL,44.94,-93.1
55168,SAINT PAUL,44.94,-93.1
55168,V A,44.94,-93.1
55170,SAINT PAUL,44.94,-93.1
55170,FIRST BANK ST PAUL,44.94,-93.1
55170,US BANK,44.94,-93.1
55170,US BANK VISA,44.94,-93.1
55171,SAINT PAUL,44.94,-93.1
55171,US BANK VISA,44.94,-93.1
55172,SAINT PAUL,44.94,-93.1
55172,BAR CODE,44.94,-93.1
55175,SAINT PAUL,44.94,-93.1
55187,SAINT PAUL,44.94,-92.91
55187,TARGET DIRECT,44.94,-92.91
55188,SAINT PAUL,44.94,-93.1
55188,TARGET DIRECT,44.94,-93.1
55071,SAINT PAUL PARK,44.83,-92.99
55071,ST PAUL PARK,44.83,-92.99
55071,GREY CLOUD ISLAND,44.83,-92.99
56082,SAINT PETER,44.32,-93.96
56082,ST PETER,44.32,-93.96
56083,SANBORN,44.21,-95.12
55072,SANDSTONE,46.12,-92.86
55072,MARKVILLE,46.12,-92.86
55072,DANFORTH,46.12,-92.86
55072,DELL GROVE,46.12,-92.86
55072,GRONINGEN,46.12,-92.86
56377,SARTELL,45.62,-94.2
56378,SAUK CENTRE,45.73,-94.95
56378,WEST UNION,45.73,-94.95
56378,WESTPORT,45.73,-94.95
56389,WEST UNION,45.8,-95.08
56389,SAUK CENTRE,45.8,-95.08
55306,BURNSVILLE,44.76,-93.27
55337,BURNSVILLE,44.76,-93.27
55378,SAVAGE,44.75,-93.35
55780,SAWYER,46.67,-92.63
55073,SCANDIA,45.27,-92.82
55073,COPAS,45.27,-92.82
55073,NEW SCANDIA,45.27,-92.82
55073,OTISVILLE,45.27,-92.82
55613,SCHROEDER,47.69,-90.96
56477,SEBEKA,46.62,-95.08
56478,NIMROD,46.63,-94.88
55074,SHAFER,45.38,-92.74
55074,FRANCONIA,45.38,-92.74
55379,SHAKOPEE,44.77,-93.47
55379,PRIOR LAKE,44.77,-93.47
56171,SHERBURN,43.65,-94.72
56676,SHEVLIN,47.53,-95.25
56676,PINEWOOD,47.53,-95.25
56676,ALIDA,47.53,-95.25
56676,BEAR CREEK,47.53,-95.25
56676,MOOSE CREEK,47.53,-95.25
55781,SIDE LAKE,47.66,-93.01
55607,ISABELLA,47.61,-91.35
55614,SILVER BAY,47.29,-91.27
55614,LITTLE MARAIS,47.29,-91.27
55380,SILVER CREEK,45.32,-93.95
55380,MAPLE LAKE,45.32,-93.95
55380,SILVER LAKE,45.32,-93.95
55381,SILVER LAKE,44.9,-94.19
56172,SLAYTON,43.99,-95.75
56085,SLEEPY EYE,44.29,-94.72
56085,COBDEN,44.29,-94.72
56085,EVAN,44.29,-94.72
56678,SOLWAY,47.52,-95.12
56678,BECIDA,47.52,-95.12
56678,LAMMERS,47.52,-95.12
56687,WILTON,47.5,-94.99
56687,ECKLES,47.5,-94.99
55782,SOUDAN,47.81,-92.23
55382,SOUTH HAVEN,45.29,-94.21
55382,SAINT AUGUSTA,45.29,-94.21
56679,SOUTH INTERNATIONAL FALLS,48.53,-93.29
56679,S INTL FALLS,48.53,-93.29
56679,S INT FALLS,48.53,-93.29
55075,SOUTH SAINT PAUL,44.88,-93.04
55075,SOUTH ST PAUL,44.88,-93.04
55075,S SAINT PAUL,44.88,-93.04
55075,SO SAINT PAUL,44.88,-93.04
55076,INVER GROVE HEIGHTS,44.82,-93.05
55076,INVER GROVE,44.82,-93.05
55076,SOUTH SAINT PAUL,44.82,-93.05
55076,SOUTH ST PAUL,44.82,-93.05
55077,INVER GROVE HEIGHTS,44.82,-93.05
55077,INVER GROVE,44.82,-93.05
55077,SOUTH SAINT PAUL,44.82,-93.05
55077,SOUTH ST PAUL,44.82,-93.05
55077,SUNFISH LAKE,44.82,-93.05
56288,SPICER,45.23,-94.93
56087,SPRINGFIELD,44.23,-94.97
55974,SPRING GROVE,43.56,-91.63
56680,SPRING LAKE,47.64,-93.86
56680,OSLUND,47.64,-93.86
56680,SAND LAKE,47.64,-93.86
55384,SPRING PARK,44.93,-93.63
55975,SPRING VALLEY,43.68,-92.38
55975,CHERRY GROVE,43.68,-92.38
56681,SQUAW LAKE,47.62,-94.14
56681,GOOD HOPE,47.62,-94.14
55078,STACY,45.39,-92.98
55079,STACY,45.39,-92.98
55079,LENT,45.39,-92.98
55079,MARTIN LAKE,45.39,-92.98
55080,STANCHFIELD,45.66,-93.26
55080,STANFORD,45.66,-93.26
56479,STAPLES,46.36,-94.8
56479,MORAN,46.36,-94.8
56479,POPLAR,46.36,-94.8
56381,STARBUCK,45.61,-95.53
56173,STEEN,43.51,-96.26
55385,STEWART,44.72,-94.48
55976,STEWARTVILLE,43.85,-92.48
55976,HIGH FOREST,43.85,-92.48
55976,PLEASANT GROVE,43.85,-92.48
55082,STILLWATER,45.05,-92.82
55082,OAK PARK HEIGHTS,45.05,-92.82
55082,OAK PARK HGTS,45.05,-92.82
55082,OAK PARK HTS,45.05,-92.82
55082,W LAKELAND,45.05,-92.82
55082,WEST LAKELAND,45.05,-92.82
55082,GRANT TOWNSHIP,45.05,-92.82
55083,STILLWATER,45.05,-92.82
56174,STORDEN,44.03,-95.31
55783,STURGEON LAKE,46.38,-92.82
56289,SUNBURG,45.34,-95.23
56382,SWANVILLE,45.91,-94.63
55786,TACONITE,47.32,-93.36
55786,ARCTURUS,47.32,-93.36
55786,HOLMAN,47.32,-93.36
55786,LAWRENCE,47.32,-93.36
55786,SAVANNAH,47.32,-93.36
55787,TAMARACK,46.65,-93.11
55787,BALSAM,46.65,-93.11
55787,CLARK,46.65,-93.11
55787,HAUGEN,46.65,-93.11
55977,TAOPI,43.55,-92.64
56291,TAUNTON,44.59,-96.06
55084,TAYLORS FALLS,45.41,-92.66
55084,PALMDALE,45.41,-92.66
56683,TENSTRIKE,47.66,-94.68
55615,TOFTE,47.55,-90.88
55790,TOWER,47.81,-92.29
55790,BREITUNG,47.81,-92.29
55790,KUGLER,47.81,-92.29
56132,GARVIN,44.21,-95.76
56175,TRACY,44.23,-95.61
56175,AMIRET,44.23,-95.61
56684,TRAIL,47.78,-95.69
56176,TRIMONT,43.76,-94.71
56088,TRUMAN,43.82,-94.43
56089,TWIN LAKES,43.56,-93.42
55616,TWO HARBORS,47.03,-91.67
56178,TYLER,44.27,-96.13
56384,UPSALA,45.8,-94.56
55979,UTICA,43.97,-91.95
55979,FREMONT,43.97,-91.95
55085,VERMILLION,44.67,-92.96
56481,VERNDALE,46.39,-95.01
56481,OYLEN,46.39,-95.01
56481,THOMASTOWN,46.39,-95.01
56481,WING RIVER,46.39,-95.01
56090,VERNON CENTER,43.96,-94.16
56287,SEAFORTH,44.47,-95.32
56287,VESTA,44.47,-95.32
56292,VESTA,44.5,-95.41
55386,VICTORIA,44.86,-93.65
56385,VILLARD,45.71,-95.26
56385,WESTPORT,45.71,-95.26
55777,VIRGINIA,47.51,-92.5
55792,VIRGINIA,47.51,-92.5
55792,MOUNTAIN IRON,47.51,-92.5
55968,READS LANDING,44.39,-92.13
55981,WABASHA,44.37,-92.04
55981,DUMFRIES,44.37,-92.04
56293,WABASSO,44.4,-95.25
55387,WACONIA,44.84,-93.79
55387,MINNETRISTA,44.84,-93.79
56482,WADENA,46.43,-95.13
56386,WAHKON,46.11,-93.52
56091,WALDORF,43.93,-93.69
56430,AH GWAH CHING,47.06,-94.5
56436,BENEDICT,47.15,-94.69
56484,WALKER,47.08,-94.57
56484,WHIPHOLT,47.08,-94.57
56484,LEECH LAKE,47.08,-94.57
56484,ONIGUM,47.08,-94.57
56484,SHINGOBEE,47.08,-94.57
56484,TURTLE LAKE,47.08,-94.57
56180,WALNUT GROVE,44.22,-95.46
55982,WALTHAM,43.82,-92.87
55983,WANAMINGO,44.3,-92.79
56294,WANDA,44.31,-95.21
55742,GOODLAND,47.16,-93.13
55752,JACOBSON,47.0,-93.26
55752,BALL BLUFF,47.0,-93.26
55752,CORNISH,47.0,-93.26
55784,SWAN RIVER,47.08,-93.19
55793,WARBA,47.13,-93.27
55087,WARSAW,44.23,-93.34
56093,WASECA,44.08,-93.5
56093,MERIDEN,44.08,-93.5
56093,OTISCO,44.08,-93.5
56685,WASKISH,48.16,-94.51
55388,WATERTOWN,44.96,-93.84
55388,MINNETRISTA,44.96,-93.84
56096,WATERVILLE,44.22,-93.57
55389,WATKINS,45.31,-94.4
56295,WATSON,45.01,-95.79
55390,WAVERLY,45.06,-93.96
55361,MINNETONKA BEACH,44.93,-93.58
55361,MINETONKA BCH,44.93,-93.58
55361,MINNETNKA BCH,44.93,-93.58
55391,WAYZATA,44.97,-93.51
55391,DEEPHAVEN,44.97,-93.51
55391,ORONO,44.97,-93.51
55391,WOODLAND,44.97,-93.51
55392,NAVARRE,44.95,-93.54
55088,WEBSTER,44.5,-93.34
55089,WELCH,44.59,-92.71
55089,ETTER,44.59,-92.71
55089,VASA,44.59,-92.71
56181,WELCOME,43.66,-94.61
56097,WELLS,43.74,-93.72
56097,WALTERS,43.74,-93.72
56183,WESTBROOK,44.04,-95.43
55985,WEST CONCORD,44.15,-92.89
55985,BERNE,44.15,-92.89
55985,CONCORD,44.15,-92.89
56296,WHEATON,45.8,-96.49
55090,WILLERNIE,45.05,-92.95
56686,WILLIAMS,48.76,-94.95
56686,BIRCH BEACH,48.76,-94.95
56686,LONG POINT,48.76,-94.95
56686,LUDE,48.76,-94.95
56201,WILLMAR,45.12,-95.04
55795,WILLOW RIVER,46.32,-92.83
55795,RUTLEDGE,46.32,-92.83
55795,NORMAN,46.32,-92.83
56185,WILMONT,43.76,-95.82
56101,WINDOM,43.86,-95.11
56101,WILDER,43.86,-95.11
56101,DELFT,43.86,-95.11
56118,BINGHAM LAKE,43.9,-95.04
56118,WINDOM,43.9,-95.04
56140,IHLEN,43.91,-96.37
56047,HUNTLEY,43.71,-94.18
56098,WINNEBAGO,43.76,-94.16
55942,HOMER,44.0,-91.54
55987,WINONA,44.04,-91.65
55987,GOODVIEW,44.04,-91.65
55987,LAMOILLE,44.04,-91.65
55987,PICKWICK,44.04,-91.65
55987,WILSON,44.04,-91.65
55987,WISCOY,44.04,-91.65
55987,WITOKA,44.04,-91.65
55988,STOCKTON,44.02,-91.77
55988,WINONA,44.02,-91.77
55395,WINSTED,44.96,-94.04
55396,WINTHROP,44.54,-94.36
56297,WOOD LAKE,44.65,-95.53
56186,WOODSTOCK,44.01,-96.09
56187,WORTHINGTON,43.62,-95.59
55749,HOLYOKE,46.46,-92.38
55749,WRENSHALL,46.46,-92.38
55797,WRENSHALL,46.61,-92.38
55797,HOLYOKE,46.61,-92.38
55797,NICKERSON,46.61,-92.38
55798,WRIGHT,46.67,-93.0
55990,WYKOFF,43.7,-92.26
55990,FILLMORE,43.7,-92.26
55092,WYOMING,45.33,-92.99
55092,EAST BETHEL,45.33,-92.99
55092,COLUMBUS,45.33,-92.99
55368,NORWOOD YOUNG AMERICA,44.76,-93.92
55368,NORWOOD,44.76,-93.92
55368,NYA,44.76,-93.92
55383,NORWOOD,44.76,-93.92
55383,NORWOOD YOUNG AMERICA,44.76,-93.92
55394,YOUNG AMERICA,44.78,-93.91
55394,NORWOOD YOUNG AMERICA,44.78,-93.91
55397,YOUNG AMERICA,44.78,-93.91
55397,NORWOOD YOUNG AMERICA,44.78,-93.91
55397,NYA,44.78,-93.91
55399,YOUNG AMERICA,44.78,-93.91
55399,NORWOOD YOUNG AMERICA,44.78,-93.91
55550,YOUNG AMERICA,44.78,-93.91
55550,NORWOOD YOUNG AMERICA,44.78,-93.91
55551,YOUNG AMERICA,44.78,-93.91
55551,NORWOOD YOUNG AMERICA,44.78,-93.91
55552,YOUNG AMERICA,44.78,-93.91
55552,NORWOOD YOUNG AMERICA,44.78,-93.91
55553,YOUNG AMERICA,44.78,-93.91
55553,NORWOOD YOUNG AMERICA,44.78,-93.91
55554,NORWOOD,44.76,-93.92
55554,NORWOOD YOUNG AMERICA,44.76,-93.92
55555,YOUNG AMERICA,44.78,-93.91
55555,NORWOOD YOUNG AMERICA,44.78,-93.91
55556,YOUNG AMERICA,44.78,-93.91
55556,NORWOOD YOUNG AMERICA,44.78,-93.91
55557,YOUNG AMERICA,44.78,-93.91
55557,NORWOOD YOUNG AMERICA,44.78,-93.91
55558,YOUNG AMERICA,44.78,-93.91
55558,NORWOOD YOUNG AMERICA,44.78,-93.91
55558,YOUNG AMERICA CORP,44.78,-93.91
55559,YOUNG AMERICA,44.78,-93.91
55559,NORWOOD YOUNG AMERICA,44.78,-93.91
55560,YOUNG AMERICA,44.78,-93.91
55560,NORWOOD YOUNG AMERICA,44.78,-93.91
55562,YOUNG AMERICA,44.78,-93.91
55562,NORWOOD YOUNG AMERICA,44.78,-93.91
55564,YOUNG AMERICA,44.78,-93.91
55564,NORWOOD YOUNG AMERICA,44.78,-93.91
55566,YOUNG AMERICA,44.78,-93.91
55566,NORWOOD YOUNG AMERICA,44.78,-93.91
55567,YOUNG AMERICA,44.78,-93.91
55567,NORWOOD YOUNG AMERICA,44.78,-93.91
55568,YOUNG AMERICA,44.78,-93.91
55568,NORWOOD YOUNG AMERICA,44.78,-93.91
55573,YOUNG AMERICA,44.78,-93.91
55573,NORWOOD YOUNG AMERICA,44.78,-93.91
55583,NORWOOD,44.76,-93.92
55583,NORWOOD YOUNG AMERICA,44.76,-93.92
55594,YOUNG AMERICA,44.78,-93.91
55594,NORWOOD YOUNG AMERICA,44.78,-93.91
55398,ZIMMERMAN,45.44,-93.59
55991,ZUMBRO FALLS,44.28,-92.42
55991,HAMMOND,44.28,-92.42
55992,ZUMBROTA,44.29,-92.67
56510,ADA,47.29,-96.51
56510,LOCKHART,47.29,-96.51
56710,ALVARADO,48.19,-96.99
56711,ANGLE INLET,49.21,-94.97
56711,PENASSE,49.21,-94.97
56713,ARGYLE,48.33,-96.81
56511,AUDUBON,46.86,-95.98
56714,BADGER,48.77,-96.02
56514,BARNESVILLE,46.64,-96.41
56514,DOWNER,46.64,-96.41
56515,BATTLE LAKE,46.28,-95.71
56515,AMOR,46.28,-95.71
56516,BEJOU,47.44,-95.97
56517,BELTRAMI,47.54,-96.52
56518,BLUFFTON,46.46,-95.23
56519,BORUP,47.18,-96.5
56520,BRECKENRIDGE,46.26,-96.58
56520,BRUSHVALE,46.26,-96.58
56520,EVERDELL,46.26,-96.58
56715,BROOKS,47.81,-96.0
56521,CALLAWAY,46.98,-95.91
56522,CAMPBELL,46.09,-96.4
56522,DORAN,46.09,-96.4
56565,NASHUA,46.03,-96.3
56583,TINTAH,46.01,-96.32
56583,TENNEY,46.01,-96.32
56583,CAMPBELL,46.01,-96.32
56583,CHARLESVILLE,46.01,-96.32
56523,CLIMAX,47.6,-96.81
56523,ELDRED,47.6,-96.81
56524,CLITHERALL,46.27,-95.62
56525,COMSTOCK,46.66,-96.74
56716,CROOKSTON,47.77,-96.6
56716,GENTILLY,47.77,-96.6
56527,DEER CREEK,46.39,-95.32
56528,DENT,46.55,-95.71
56501,DETROIT LAKES,46.81,-95.84
56502,DETROIT LAKES,46.81,-95.84
56577,RICHWOOD,46.97,-95.82
56578,ROCHERT,46.86,-95.68
56529,DILWORTH,46.87,-96.69
56720,DONALDSON,48.57,-96.89
56721,EAST GRAND FORKS,47.93,-97.01
56721,E GRAND FORKS,47.93,-97.01
56721,E G FORKS,47.93,-97.01
56531,ELBOW LAKE,45.99,-95.97
56531,ERDAHL,45.99,-95.97
56534,ERHARD,46.48,-96.09
56535,ERSKINE,47.66,-96.01
56722,EUCLID,47.97,-96.63
56536,FELTON,47.07,-96.5
56533,ELIZABETH,46.37,-96.13
56537,FERGUS FALLS,46.28,-96.06
56537,CARLISLE,46.28,-96.06
56538,FERGUS FALLS,46.28,-96.06
56540,FERTILE,47.53,-96.29
56540,RINDAL,47.53,-96.29
56723,FISHER,47.79,-96.79
56541,FLOM,47.16,-96.13
56542,FOSSTON,47.58,-95.74
56543,FOXHOME,46.27,-96.31
56544,FRAZEE,46.72,-95.69
56593,WOLF LAKE,46.8,-95.35
56545,GARY,47.37,-96.26
56546,GEORGETOWN,47.07,-96.79
56547,GLYNDON,46.87,-96.57
56547,AVERILL,46.87,-96.57
56725,GOODRIDGE,48.14,-95.8
56725,ERIE,48.14,-95.8
56726,GREENBUSH,48.69,-96.18
56727,GRYGLA,48.29,-95.61
56728,HALLOCK,48.76,-96.94
56728,NORTHCOTE,48.76,-96.94
56740,NOYES,48.99,-97.2
56740,HALLOCK,48.99,-97.2
56755,SAINT VINCENT,48.97,-97.22
56755,HALLOCK,48.97,-97.22
56548,HALSTAD,47.35,-96.82
56549,HAWLEY,46.87,-96.31
56549,ROLLAG,46.87,-96.31
56549,DALE,46.87,-96.31
56550,HENDRUM,47.26,-96.81
56551,HENNING,46.32,-95.44
56551,ALMORA,46.32,-95.44
56552,HITTERDAL,46.97,-96.25
56731,HUMBOLDT,48.92,-97.09
56729,HALMA,48.66,-96.59
56732,KARLSTAD,48.57,-96.51
56733,KENNEDY,48.64,-96.91
56553,KENT,46.43,-96.68
56734,LAKE BRONSON,48.73,-96.66
56554,LAKE PARK,46.88,-96.09
56735,LANCASTER,48.85,-96.8
56735,ORLEANS,48.85,-96.8
56556,MCINTOSH,47.63,-95.88
56557,MAHNOMEN,47.31,-95.96
56557,BEAULIEU,47.31,-95.96
56736,MENTOR,47.69,-96.14
56724,GATZKE,48.42,-95.78
56737,MIDDLE RIVER,48.43,-96.16
56560,MOORHEAD,46.86,-96.75
56560,KRAGNES,46.86,-96.75
56561,MOORHEAD,46.86,-96.75
56562,MOORHEAD,46.86,-96.75
56562,CONCORDIA COLLEGE,46.86,-96.75
56563,MOORHEAD,46.86,-96.75
56563,MOORHEAD STATE UNIVERSITY,46.86,-96.75
56566,NAYTAHWAUSH,47.28,-95.63
56738,NEWFOLDEN,48.35,-96.32
56738,HOLT,48.35,-96.32
56567,NEW YORK MILLS,46.51,-95.37
56567,NEW YORK MLS,46.51,-95.37
56567,BUTLER,46.51,-95.37
56568,NIELSVILLE,47.52,-96.81
56569,OGEMA,47.1,-95.92
56742,OKLEE,47.83,-95.85
56570,OSAGE,46.92,-95.25
56570,SNELLMAN,46.92,-95.25
56744,OSLO,48.19,-97.12
56571,OTTERTAIL,46.42,-95.55
56572,PELICAN RAPIDS,46.57,-96.08
56572,PEL RAPIDS,46.57,-96.08
56572,CORMORANT,46.57,-96.08
56573,PERHAM,46.59,-95.57
56574,PERLEY,47.17,-96.8
56748,PLUMMER,47.91,-96.03
56575,PONSFORD,46.97,-95.38
56750,RED LAKE FALLS,47.88,-96.27
56750,RL FALLS,47.88,-96.27
56576,RICHVILLE,46.5,-95.62
56576,BASSWOOD,46.5,-95.62
56751,ROSEAU,48.84,-95.76
56751,PENCER,48.84,-95.76
56751,ROSS,48.84,-95.76
56751,PINECREEK,48.84,-95.76
56579,ROTHSAY,46.47,-96.28
56580,SABIN,46.78,-96.65
56580,BAKER,46.78,-96.65
56754,SAINT HILAIRE,48.01,-96.21
56581,SHELLY,47.45,-96.82
56757,STEPHEN,48.45,-96.87
56758,STRANDQUIST,48.49,-96.44
56758,FLORIAN,48.49,-96.44
56759,STRATHCONA,48.55,-96.16
56701,THIEF RIVER FALLS,48.11,-96.17
56701,THIEF RVR FLS,48.11,-96.17
56701,ROSEWOOD,48.11,-96.17
56701,TR FALLS,48.11,-96.17
56584,TWIN VALLEY,47.25,-96.25
56584,FAITH,47.25,-96.25
56584,FOSSUM,47.25,-96.25
56584,SYRE,47.25,-96.25
56585,ULEN,47.07,-96.25
56586,UNDERWOOD,46.28,-95.87
56586,MAINE,46.28,-95.87
56587,VERGAS,46.65,-95.8
56760,VIKING,48.21,-96.4
56588,VINING,46.26,-95.53
56761,WANNASKA,48.65,-95.73
56761,SKIME,48.65,-95.73
56762,WARREN,48.19,-96.76
56762,ANGUS,48.19,-96.76
56762,RADIUM,48.19,-96.76
56741,OAK ISLAND,49.31,-94.84
56741,WARROAD,49.31,-94.84
56756,SALOL,48.86,-95.57
56763,WARROAD,48.9,-95.32
56763,SWIFT,48.9,-95.32
56589,WAUBUN,47.18,-95.93
56590,WENDELL,46.03,-96.1
56591,WHITE EARTH,47.09,-95.85
56592,WINGER,47.53,-95.98
56594,WOLVERTON,46.56,-96.73
55161,SAINT PAUL,45.01,-93.15
55161,STATE FARM INS,45.01,-93.15
55169,SAINT PAUL,44.94,-93.09
55169,USPS FAC AREA OFFICE,44.94,-93.09
55177,SPOTTS INC,45.01,-93.15
55177,SAINT PAUL,45.01,-93.15
55191,NEW BRIGHTON BOXES,45.07,-93.19
55191,SAINT PAUL,45.07,-93.19
55468,DAMARK,44.98,-93.26
55468,MINNEAPOLIS,44.98,-93.26
55561,MONTICELLO,45.27,-93.8
55563,MONTICELLO,45.27,-93.8
